GLOBALSTAR M069         
1 31573U 07020C   26187.23099355 -.00000072  00000+0  19019-3 0  9990
2 31573  51.9996 198.2245 0001894 190.0791 251.3583 12.23472067881132
GLOBALSTAR M072         
1 31574U 07020D   26187.03262338 -.00000075  00000+0  12179-3 0  9995
2 31574  51.9943  50.0744 0001604  16.7469 150.6245 11.91658629877224
GLOBALSTAR M066         
1 32265U 07048C   26185.53584877 -.00000097  00000+0 -18207-4 0  9995
2 32265  51.9612   8.1104 0005713  79.8467 314.3397 12.30387894862365
GLOBALSTAR M079         
1 37188U 10054A   26187.08397541 -.00000097  00000+0  35676-4 0  9995
2 37188  52.0046  51.1460 0001063  62.2784 102.1981 12.62266454724937
GLOBALSTAR M074         
1 37189U 10054B   26187.03398464 -.00000098  00000+0  30384-4 0  9998
2 37189  52.0026  50.5602 0000832  79.0429  98.2745 12.62261915725539
GLOBALSTAR M076         
1 37190U 10054C   26187.05751551 -.00000093  00000+0  58162-4 0  9991
2 37190  52.0038  50.6936 0001054  75.0656  89.1324 12.62262090725256
GLOBALSTAR M077         
1 37191U 10054D   26187.23461645 -.00000064  00000+0  25917-3 0  9993
2 37191  51.9940 130.9494 0002413 207.8288 300.3196 11.67547921723362
GLOBALSTAR M075         
1 37192U 10054E   26187.23032657 -.00000078  00000+0  14613-3 0  9997
2 37192  51.9945  92.2105 0000597  50.6877 119.4926 12.62267716724342
GLOBALSTAR M073         
1 37193U 10054F   26186.99241035 -.00000098  00000+0  30862-4 0  9999
2 37193  52.0074   7.0499 0001115  82.9258  83.9810 12.62266828726304
GLOBALSTAR M083         
1 37739U 11033A   26186.84745059 -.00000077  00000+0  14973-3 0  9993
2 37739  51.9876 315.6947 0000912  94.9698  74.2293 12.62263889695306
GLOBALSTAR M088         
1 37740U 11033B   26187.27669402 -.00000099  00000+0  24941-4 0  9991
2 37740  52.0187 220.8624 0000250 154.6633 284.6184 12.62269262690900
GLOBALSTAR M091         
1 37741U 11033C   26187.21074536 -.00000106  00000+0 -10317-4 0  9996
2 37741  51.9966 183.9990 0000184 359.2163  80.9694 12.62264128691681
GLOBALSTAR M085         
1 37742U 11033D   26187.21035332 -.00000086  00000+0  97885-4 0  9999
2 37742  52.0113 135.3081 0000572  21.1784 117.2647 12.62264232692190
GLOBALSTAR M081         
1 37743U 11033E   26187.23711119 -.00000090  00000+0  75192-4 0  9998
2 37743  51.9943 137.6411 0000471  43.3008  96.5737 12.62265319692348
GLOBALSTAR M089         
1 37744U 11033F   26187.20277308 -.00000086  00000+0  98183-4 0  9993
2 37744  51.9930  91.9014 0000612  81.4917  83.2956 12.62267534693185
GLOBALSTAR M084         
1 38040U 11080A   26186.82006772 -.00000088  00000+0  87898-4 0  9990
2 38040  52.0029 320.5578 0001018 116.0824  48.6974 12.62267774671115
GLOBALSTAR M080         
1 38041U 11080B   26186.79141442 -.00000086  00000+0  97471-4 0  9997
2 38041  52.0078 322.3696 0000423  83.5227  81.0354 12.62265497671231
GLOBALSTAR M082         
1 38042U 11080C   26186.30323648 -.00000090  00000+0  78118-4 0  9997
2 38042  52.0077 279.3594 0000329 112.3988 282.4772 12.62263886671881
GLOBALSTAR M092         
1 38043U 11080D   26187.02001583 -.00000081  00000+0  12781-3 0  9992
2 38043  52.0098   7.5744 0000843  89.6289  83.2293 12.62267535670423
GLOBALSTAR M090         
1 38044U 11080E   26187.28020094 -.00000086  00000+0  10095-3 0  9990
2 38044  52.0123 270.3481 0000507 106.8799 288.4556 12.62252907672123
GLOBALSTAR M086         
1 38045U 11080F   26187.01461719 -.00000073  00000+0  17027-3 0  9993
2 38045  51.9894 271.0545 0001632  98.3874  72.3482 12.62287739672034
GLOBALSTAR M097         
1 39072U 13005A   26187.16709501 -.00000104  00000+0 -90839-6 0  9994
2 39072  52.0014 185.5594 0000221  39.5863 320.5020 12.62271324619302
GLOBALSTAR M093         
1 39073U 13005B   26186.26926404 -.00000108  00000+0 -23626-4 0  9990
2 39073  52.0075 181.6456 0000399  33.0659 327.0233 12.62266172619147
GLOBALSTAR M094         
1 39074U 13005C   26187.14013877 -.00000090  00000+0  75598-4 0  9994
2 39074  51.9958  93.0930 0000859  45.9390 314.1548 12.62268515620864
GLOBALSTAR M096         
1 39075U 13005D   26187.23285162 -.00000092  00000+0  63037-4 0  9990
2 39075  52.0052 141.6262 0000526  24.7774 335.3118 12.62265613619796
GLOBALSTAR M078         
1 39076U 13005E   26187.12676386 -.00000102  00000+0  10696-4 0  9996
2 39076  51.9849 225.9353 0000629 309.4473  50.6338 12.62259987618404
GLOBALSTAR M095         
1 39077U 13005F   26187.31183253 -.00000099  00000+0  26567-4 0  9993
2 39077  52.0057 223.0026 0000203   2.4880 357.5987 12.62263954618288
GLOBALSTAR M087         
1 52888U 22064A   26186.84987996 -.00000103  00000+0  24942-5 0  9998
2 52888  52.0011   5.6352 0000949  71.8496 288.2474 12.62269293193493
